[{"OBJECT_NAME":"YAOGAN-43 01F","OBJECT_ID":"2024-148F","EPOCH":"2026-03-10T00:23:08.877408","MEAN_MOTION":15.29824616,"ECCENTRICITY":0.00057048,"INCLINATION":34.9925,"RA_OF_ASC_NODE":59.8891,"ARG_OF_PERICENTER":18.4862,"MEAN_ANOMALY":341.6062,"EPHEMERIS_TYPE":0,"CLASSIFICATION_TYPE":"U","NORAD_CAT_ID":60463,"ELEMENT_SET_NO":999,"REV_AT_EPOCH":8707,"BSTAR":0.00058388219,"MEAN_MOTION_DOT":0.00017308,"MEAN_MOTION_DDOT":0},{"OBJECT_NAME":"STARLINK-34785","OBJECT_ID":"2025-190D","EPOCH":"2026-03-09T13:45:15.909120","MEAN_MOTION":15.30147928,"ECCENTRICITY":0.0001355,"INCLINATION":53.1588,"RA_OF_ASC_NODE":168.9876,"ARG_OF_PERICENTER":82.0202,"MEAN_ANOMALY":278.0953,"EPHEMERIS_TYPE":0,"CLASSIFICATION_TYPE":"U","NORAD_CAT_ID":65354,"ELEMENT_SET_NO":999,"REV_AT_EPOCH":2926,"BSTAR":0.001111,"MEAN_MOTION_DOT":0.00032636,"MEAN_MOTION_DDOT":0}]
